{"type": "FeatureCollection", "features": [ {"type": "Feature", "properties": {"norad_id": 66659, "name": "JACK K", "group": "last-30-days", "lat": -54.50647255834922, "lon": -84.88346705537917, "alt_km": 588.0053572855068, "timestamp": "2025-12-02T17:49:10.801345+00:00", "meta": {"OBJECT_NAME": "JACK K", "OBJECT_ID": "2025-274K", "EPOCH": "2025-12-02T11:37:51.574944", "MEAN_MOTION": 14.92709997, "ECCENTRICITY": 0.0012545, "INCLINATION": 97.7378, "RA_OF_ASC_NODE": 263.8713, "ARG_OF_PERICENTER": 318.59, "MEAN_ANOMALY": 41.4367, "EPHEMERIS_TYPE": 0, "CLASSIFICATION_TYPE": "U", "NORAD_CAT_ID": 66659, "ELEMENT_SET_NO": 999, "REV_AT_EPOCH": 87, "BSTAR": 0.00045751, "MEAN_MOTION_DOT": 4.672e-05, "MEAN_MOTION_DDOT": 0}, "tle": {"line1": "1 66659U 25274K   25336.48462471  .00004672  00000+0  45751-3 0  9990", "line2": "2 66659  97.7378 263.8713 0012545 318.5900  41.4367 14.92709997   875"}}, "geometry": {"type": "Point", "coordinates": [-84.88346705537917, -54.50647255834922]}}, {"type": "Feature", "properties": {"norad_id": 66660, "name": "K-HERO", "group": "last-30-days", "lat": -51.33157528060987, "lon": -86.09040683469432, "alt_km": 586.9432228700107, "timestamp": "2025-12-02T17:49:10.801355+00:00", "meta": {"OBJECT_NAME": "K-HERO", "OBJECT_ID": "2025-274L", "EPOCH": "2025-12-02T11:37:01.375680", "MEAN_MOTION": 14.92861642, "ECCENTRICITY": 0.0013166, "INCLINATION": 97.7382, "RA_OF_ASC_NODE": 263.8724, "ARG_OF_PERICENTER": 319.1541, "MEAN_ANOMALY": 40.8691, "EPHEMERIS_TYPE": 0, "CLASSIFICATION_TYPE": "U", "NORAD_CAT_ID": 66660, "ELEMENT_SET_NO": 999, "REV_AT_EPOCH": 87, "BSTAR": 0.0004926, "MEAN_MOTION_DOT": 5.055e-05, "MEAN_MOTION_DDOT": 0}, "tle": {"line1": "1 66660U 25274L   25336.48404370  .00005055  00000+0  49260-3 0  9991", "line2": "2 66660  97.7382 263.8724 0013166 319.1541  40.8691 14.92861642   871"}}, "geometry": {"type": "Point", "coordinates": [-86.09040683469432, -51.33157528060987]}}, {"type": "Feature", "properties": {"norad_id": 66661, "name": "SNUGLITE-III", "group": "last-30-days", "lat": -48.023503349266996, "lon": -87.17956963380556, "alt_km": 585.8255953804864, "timestamp": "2025-12-02T17:49:10.801367+00:00", "meta": {"OBJECT_NAME": "SNUGLITE-III", "OBJECT_ID": "2025-274M", "EPOCH": "2025-12-02T11:36:09.160704", "MEAN_MOTION": 14.93012228, "ECCENTRICITY": 0.0013867, "INCLINATION": 97.7379, "RA_OF_ASC_NODE": 263.8729, "ARG_OF_PERICENTER": 319.8033, "MEAN_ANOMALY": 40.216, "EPHEMERIS_TYPE": 0, "CLASSIFICATION_TYPE": "U", "NORAD_CAT_ID": 66661, "ELEMENT_SET_NO": 999, "REV_AT_EPOCH": 87, "BSTAR": 0.00038987, "MEAN_MOTION_DOT": 4.005e-05, "MEAN_MOTION_DDOT": 0}, "tle": {"line1": "1 66661U 25274M   25336.48343936  .00004005  00000+0  38987-3 0  9990", "line2": "2 66661  97.7379 263.8729 0013867 319.8033  40.2160 14.93012228   878"}}, "geometry": {"type": "Point", "coordinates": [-87.17956963380556, -48.023503349266996]}}, {"type": "Feature", "properties": {"norad_id": 66662, "name": "2025-274N", "group": "last-30-days", "lat": -46.552878501137435, "lon": -87.6183641104176, "alt_km": 585.2631461166229, "timestamp": "2025-12-02T17:49:10.801377+00:00", "meta": {"OBJECT_NAME": "2025-274N", "OBJECT_ID": "2025-274N", "EPOCH": "2025-12-02T08:22:45.352992", "MEAN_MOTION": 14.93074074, "ECCENTRICITY": 0.0014272, "INCLINATION": 97.7379, "RA_OF_ASC_NODE": 263.7415, "ARG_OF_PERICENTER": 319.6599, "MEAN_ANOMALY": 40.3561, "EPHEMERIS_TYPE": 0, "CLASSIFICATION_TYPE": "U", "NORAD_CAT_ID": 66662, "ELEMENT_SET_NO": 999, "REV_AT_EPOCH": 85, "BSTAR": 0.00027623, "MEAN_MOTION_DOT": 2.825e-05, "MEAN_MOTION_DDOT": 0}, "tle": {"line1": "1 66662U 25274N   25336.34913603  .00002825  00000+0  27623-3 0  9993", "line2": "2 66662  97.7379 263.7415 0014272 319.6599  40.3561 14.93074074   857"}}, "geometry": {"type": "Point", "coordinates": [-87.6183641104176, -46.552878501137435]}}, {"type": "Feature", "properties": {"norad_id": 66663, "name": "KSLV-II R/B", "group": "last-30-days", "lat": 47.09731839974675, "lon": -104.23461253488982, "alt_km": 554.1104843322892, "timestamp": "2025-12-02T17:49:10.801387+00:00", "meta": {"OBJECT_NAME": "KSLV-II R/B", "OBJECT_ID": "2025-274P", "EPOCH": "2025-12-02T09:35:20.901408", "MEAN_MOTION": 14.972028, "ECCENTRICITY": 0.0044135, "INCLINATION": 97.7406, "RA_OF_ASC_NODE": 263.8419, "ARG_OF_PERICENTER": 353.0151, "MEAN_ANOMALY": 7.045, "EPHEMERIS_TYPE": 0, "CLASSIFICATION_TYPE": "U", "NORAD_CAT_ID": 66663, "ELEMENT_SET_NO": 999, "REV_AT_EPOCH": 86, "BSTAR": -0.00028812, "MEAN_MOTION_DOT": -3.459e-05, "MEAN_MOTION_DDOT": 0}, "tle": {"line1": "1 66663U 25274P   25336.39954747 -.00003459  00000+0 -28812-3 0  9990", "line2": "2 66663  97.7406 263.8419 0044135 353.0151   7.0450 14.97202800   863"}}, "geometry": {"type": "Point", "coordinates": [-104.23461253488982, 47.09731839974675]}}, {"type": "Feature", "properties": {"norad_id": 66664, "name": "SOYUZ-MS 28", "group": "last-30-days", "lat": 22.280301761176496, "lon": -149.0872540207748, "alt_km": 418.7716823226783, "timestamp": "2025-12-02T17:49:10.801398+00:00", "meta": {"OBJECT_NAME": "SOYUZ-MS 28", "OBJECT_ID": "2025-275A", "EPOCH": "2025-12-02T02:12:50.597856", "MEAN_MOTION": 15.49237019, "ECCENTRICITY": 0.0003639, "INCLINATION": 51.6314, "RA_OF_ASC_NODE": 195.1903, "ARG_OF_PERICENTER": 193.8265, "MEAN_ANOMALY": 166.2625, "EPHEMERIS_TYPE": 0, "CLASSIFICATION_TYPE": "U", "NORAD_CAT_ID": 66664, "ELEMENT_SET_NO": 999, "REV_AT_EPOCH": 79, "BSTAR": 0.00017381, "MEAN_MOTION_DOT": 9.217e-05, "MEAN_MOTION_DDOT": 0}, "tle": {"line1": "1 66664U 25275A   25336.09225229  .00009217  00000+0  17381-3 0  9990", "line2": "2 66664  51.6314 195.1903 0003639 193.8265 166.2625 15.49237019   798"}}, "geometry": {"type": "Point", "coordinates": [-149.0872540207748, 22.280301761176496]}}, {"type": "Feature", "properties": {"norad_id": 66820, "name": "KOMPSAT-7", "group": "last-30-days", "lat": 82.26245626628527, "lon": -158.230529441113, "alt_km": 571.1470153743403, "timestamp": "2025-12-02T17:49:10.801421+00:00", "meta": {"OBJECT_NAME": "KOMPSAT-7", "OBJECT_ID": "2025-279A", "EPOCH": "2025-12-01T20:35:16.060992", "MEAN_MOTION": 14.98310631, "ECCENTRICITY": 0.00097501, "INCLINATION": 97.6394, "RA_OF_ASC_NODE": 281.9587, "ARG_OF_PERICENTER": 255.3935, "MEAN_ANOMALY": 104.6207, "EPHEMERIS_TYPE": 0, "CLASSIFICATION_TYPE": "U", "NORAD_CAT_ID": 66820, "ELEMENT_SET_NO": 999, "REV_AT_EPOCH": 2, "BSTAR": 8.4407298e-05, "MEAN_MOTION_DOT": 9.47e-06, "MEAN_MOTION_DDOT": 0}, "tle": {"line1": "1 66820U 25279A   25335.85782478  .00000947  00000+0  84407-4 0  9990", "line2": "2 66820  97.6394 281.9587 0009750 255.3935 104.6207 14.98310631    23"}}, "geometry": {"type": "Point", "coordinates": [-158.230529441113, 82.26245626628527]}}]}